STARLINK-31721          
1 59536U 24074C   26068.14238197 -.00000369  00000+0 -38775-5 0  9996
2 59536  43.0039 346.3569 0000975 263.6661  96.4079 15.27570564105931
TEVEL2-7                
1 63238U 25052AE  26068.66113295  .00019244  00000+0  69668-3 0  9998
2 63238  97.4054 324.3041 0008105 124.6830 235.5175 15.28414096 54803
